[
  {
    "OBJECT_NAME": "STARLINK-32516",
    "OBJECT_ID": "24225P",
    "EPOCH": "2025-11-10T11:09:11.474496",
    "MEAN_MOTION": 14.98328782,
    "ECCENTRICITY": 0.0002673,
    "INCLINATION": 70.0022,
    "RA_OF_ASC_NODE": 105.1682,
    "ARG_OF_PERICENTER": 262.4804,
    "MEAN_ANOMALY": 97.6052,
    "EPHEMERIS_TYPE": 0,
    "CLASSIFICATION_TYPE": "U",
    "NORAD_CAT_ID": 62176,
    "ELEMENT_SET_NO": 999,
    "REV_AT_EPOCH": 5201,
    "BSTAR": 0.001134,
    "MEAN_MOTION_DOT": 0.00013464,
    "MEAN_MOTION_DDOT": 0.0,
    "TLE_LINE1": "1 62176U 24225P   25314.46471614  .00013464  00000+0  11340-2 0  9993",
    "TLE_LINE2": "2 62176  70.0022 105.1682 0002673 262.4804  97.6052 14.98328782 52011",
    "COMMENT": "Grouped by shell and plane from TLE"
  },
  {
    "OBJECT_NAME": "STARLINK-32542",
    "OBJECT_ID": "24225Q",
    "EPOCH": "2025-11-10T20:27:57.460896",
    "MEAN_MOTION": 14.98318528,
    "ECCENTRICITY": 0.0003101,
    "INCLINATION": 70.001,
    "RA_OF_ASC_NODE": 104.1141,
    "ARG_OF_PERICENTER": 272.0766,
    "MEAN_ANOMALY": 88.0038,
    "EPHEMERIS_TYPE": 0,
    "CLASSIFICATION_TYPE": "U",
    "NORAD_CAT_ID": 62177,
    "ELEMENT_SET_NO": 999,
    "REV_AT_EPOCH": 5207,
    "BSTAR": 0.00066504,
    "MEAN_MOTION_DOT": 7.849e-05,
    "MEAN_MOTION_DDOT": 0.0,
    "TLE_LINE1": "1 62177U 24225Q   25314.85274839  .00007849  00000+0  66504-3 0  9990",
    "TLE_LINE2": "2 62177  70.0010 104.1141 0003101 272.0766  88.0038 14.98318528 52070",
    "COMMENT": "Grouped by shell and plane from TLE"
  },
  {
    "OBJECT_NAME": "STARLINK-32584",
    "OBJECT_ID": "24225S",
    "EPOCH": "2025-11-10T10:39:08.993376",
    "MEAN_MOTION": 14.98321954,
    "ECCENTRICITY": 0.0002223,
    "INCLINATION": 70.0013,
    "RA_OF_ASC_NODE": 105.0315,
    "ARG_OF_PERICENTER": 270.5679,
    "MEAN_ANOMALY": 89.5225,
    "EPHEMERIS_TYPE": 0,
    "CLASSIFICATION_TYPE": "U",
    "NORAD_CAT_ID": 62179,
    "ELEMENT_SET_NO": 999,
    "REV_AT_EPOCH": 5201,
    "BSTAR": 1.6509e-05,
    "MEAN_MOTION_DOT": 1.04e-06,
    "MEAN_MOTION_DDOT": 0.0,
    "TLE_LINE1": "1 62179U 24225S   25314.44385409  .00000104  00000+0  16509-4 0  9991",
    "TLE_LINE2": "2 62179  70.0013 105.0315 0002223 270.5679  89.5225 14.98321954 52013",
    "COMMENT": "Grouped by shell and plane from TLE"
  },
  {
    "OBJECT_NAME": "STARLINK-32587",
    "OBJECT_ID": "24225T",
    "EPOCH": "2025-11-10T16:45:38.776608",
    "MEAN_MOTION": 14.98338221,
    "ECCENTRICITY": 0.0003186,
    "INCLINATION": 70.0017,
    "RA_OF_ASC_NODE": 104.2938,
    "ARG_OF_PERICENTER": 276.3603,
    "MEAN_ANOMALY": 83.7193,
    "EPHEMERIS_TYPE": 0,
    "CLASSIFICATION_TYPE": "U",
    "NORAD_CAT_ID": 62180,
    "ELEMENT_SET_NO": 999,
    "REV_AT_EPOCH": 5205,
    "BSTAR": 0.00071054,
    "MEAN_MOTION_DOT": 8.397e-05,
    "MEAN_MOTION_DDOT": 0.0,
    "TLE_LINE1": "1 62180U 24225T   25314.69836547  .00008397  00000+0  71054-3 0  9991",
    "TLE_LINE2": "2 62180  70.0017 104.2938 0003186 276.3603  83.7193 14.98338221 52050",
    "COMMENT": "Grouped by shell and plane from TLE"
  },
  {
    "OBJECT_NAME": "STARLINK-32565",
    "OBJECT_ID": "24225V",
    "EPOCH": "2025-11-11T03:34:32.183904",
    "MEAN_MOTION": 14.98336792,
    "ECCENTRICITY": 0.0003203,
    "INCLINATION": 70.0006,
    "RA_OF_ASC_NODE": 103.1489,
    "ARG_OF_PERICENTER": 270.5362,
    "MEAN_ANOMALY": 89.543,
    "EPHEMERIS_TYPE": 0,
    "CLASSIFICATION_TYPE": "U",
    "NORAD_CAT_ID": 62182,
    "ELEMENT_SET_NO": 999,
    "REV_AT_EPOCH": 5212,
    "BSTAR": 0.00042456,
    "MEAN_MOTION_DOT": 4.977e-05,
    "MEAN_MOTION_DDOT": 0.0,
    "TLE_LINE1": "1 62182U 24225V   25315.14898361  .00004977  00000+0  42456-3 0  9990",
    "TLE_LINE2": "2 62182  70.0006 103.1489 0003203 270.5362  89.5430 14.98336792 52124",
    "COMMENT": "Grouped by shell and plane from TLE"
  },
  {
    "OBJECT_NAME": "STARLINK-32589",
    "OBJECT_ID": "24225W",
    "EPOCH": "2025-11-10T11:32:59.559360",
    "MEAN_MOTION": 14.98342805,
    "ECCENTRICITY": 0.000265,
    "INCLINATION": 70.0018,
    "RA_OF_ASC_NODE": 105.2281,
    "ARG_OF_PERICENTER": 256.1582,
    "MEAN_ANOMALY": 103.9282,
    "EPHEMERIS_TYPE": 0,
    "CLASSIFICATION_TYPE": "U",
    "NORAD_CAT_ID": 62183,
    "ELEMENT_SET_NO": 999,
    "REV_AT_EPOCH": 5201,
    "BSTAR": 0.0011709000000000001,
    "MEAN_MOTION_DOT": 0.00013911,
    "MEAN_MOTION_DDOT": 0.0,
    "TLE_LINE1": "1 62183U 24225W   25314.48124490  .00013911  00000+0  11709-2 0  9996",
    "TLE_LINE2": "2 62183  70.0018 105.2281 0002650 256.1582 103.9282 14.98342805 52016",
    "COMMENT": "Grouped by shell and plane from TLE"
  }
]